NORAD_CAT_ID,OBJECT_NAME,OBJECT_TYPE,EPOCH,MEAN_MOTION,ECCENTRICITY,INCLINATION,RA_OF_ASC_NODE,ARG_OF_PERICENTER,MEAN_ANOMALY,BSTAR,MEAN_MOTION_DOT,MEAN_MOTION_DDOT,TLE_LINE0,TLE_LINE1,TLE_LINE2,SEMIMAJOR_AXIS,PERIOD,APOGEE,PERIGEE,DECAYED
52861.0,STARLINK-4112,PAYLOAD,2022-08-08 14:00:01,15.66942525,0.0001094999999999,53.2175,147.306,57.5204,338.4042,-0.010805,-0.01049554,0.0,0 STARLINK-4112,1 52861U 22062AH  22220.58335648 -.01049554  00000-0 -10805-1 0  9999,2 52861  53.2175 147.3060 0001095  57.5204 338.4042 15.66942525  8698,6745.795,91.899,368.399,366.921,0.0
52861.0,STARLINK-4112,PAYLOAD,2022-08-08 22:00:00,15.66183734,0.0001274,53.2175,145.6756,58.31100000000001,58.4915,-0.01115,-0.01050106,0.0,0 STARLINK-4112,1 52861U 22062AH  22220.91667824 -.01050106  00000-0 -11150-1 0  9999,2 52861  53.2175 145.6756 0001274  58.3110  58.4915 15.66183734  1303,6747.974,91.943,370.698,368.979,0.0
52861.0,STARLINK-4112,PAYLOAD,2022-08-09 06:00:00,15.65419899,0.0001229,53.2173,144.0479,73.4893,123.345,-0.011405,-0.01042284,0.0,0 STARLINK-4112,1 52861U 22062AH  22221.25001157 -.01042284  00000-0 -11405-1 0  9999,2 52861  53.2173 144.0479 0001229  73.4893 123.3450 15.65419899  8791,6750.168000000002,91.988,372.86300000000006,371.204,0.0
52861.0,STARLINK-4112,PAYLOAD,2022-08-09 14:00:01,15.646637900000002,0.0001132,53.2174,142.4185,68.3686,207.5845,-0.011831,-0.01048139,0.0,0 STARLINK-4112,1 52861U 22062AH  22221.58334491 -.01048139  00000-0 -11831-1 0  9993,2 52861  53.2174 142.4185 0001132  68.3686 207.5845 15.64663790  1307,6752.343000000003,92.033,374.972,373.444,0.0
52861.0,STARLINK-4112,PAYLOAD,2022-08-09 22:00:00,15.63906341,0.0001097,53.2176,140.7937,65.4403,288.7174,-0.012232,-0.01051019,0.0,0 STARLINK-4112,1 52861U 22062AH  22221.91667824 -.01051019  00000-0 -12232-1 0  9996,2 52861  53.2176 140.7937 0001097  65.4403 288.7174 15.63906341  8900,6754.523,92.077,377.129,375.647,0.0
52861.0,STARLINK-4112,PAYLOAD,2022-08-10 14:00:01,15.62383826,0.0001274,53.2175,137.5475,60.6655,87.16799999999998,-0.012903,-0.01060837,0.0,0 STARLINK-4112,1 52861U 22062AH  22222.58334491 -.01060837  00000-0 -12903-1 0  9994,2 52861  53.2175 137.5475 0001274  60.6655  87.1680 15.62383826  1309,6758.91,92.167,381.636,379.914,0.0
52861.0,STARLINK-4112,PAYLOAD,2022-08-10 20:00:01,15.61814629,0.0001373,53.2177,136.3323,53.8883,60.6317,-0.013205,-0.01061675,0.0,0 STARLINK-4112,1 52861U 22062AH  22222.83334491 -.01061675  00000-0 -13205-1 0  9999,2 52861  53.2177 136.3323 0001373  53.8883  60.6317 15.61814629  9048,6760.552,92.2,383.346,381.489,0.0
52861.0,STARLINK-4112,PAYLOAD,2022-08-10 22:00:00,15.61625139,0.0001373,53.2177,135.9285,57.7017,165.5988,-0.013306,-0.01061886,0.0,0 STARLINK-4112,1 52861U 22062AH  22222.91667824 -.01061886  00000-0 -13306-1 0  9993,2 52861  53.2177 135.9285 0001373  57.7017 165.5988 15.61625139  1308,6761.099,92.212,383.893,382.036,0.0
52861.0,STARLINK-4112,PAYLOAD,2022-08-11 14:00:01,15.60105303,0.0001063,53.2173,132.6931,62.6416,308.8579,-0.014099,-0.0106077,0.0,0 STARLINK-4112,1 52861U 22062AH  22223.58334491 -.01060770  00000-0 -14099-1 0  9999,2 52861  53.2173 132.6931 0001063  62.6416 308.8579 15.60105303  1303,6765.49,92.301,388.074,386.635,0.0
52861.0,STARLINK-4112,PAYLOAD,2022-08-11 22:00:00,15.59347592,0.0001249,53.2175,131.0798,58.6276,25.6004,-0.014549,-0.01063049,0.0,0 STARLINK-4112,1 52861U 22062AH  22223.91667824 -.01063049  00000-0 -14549-1 0  9997,2 52861  53.2175 131.0798 0001249  58.6276  25.6004 15.59347592  9215,6767.681,92.346,390.391,388.701,0.0
52861.0,STARLINK-4112,PAYLOAD,2022-08-12 14:00:01,15.57826771,0.0001245,53.2174,127.8553,68.4661,158.4852,-0.015358,-0.01059373,0.0,0 STARLINK-4112,1 52861U 22062AH  22224.58334491 -.01059373  00000-0 -15358-1 0  9996,2 52861  53.2174 127.8553 0001245  68.4661 158.4852 15.57826771  1306,6772.085,92.436,394.793,393.107,0.0
52861.0,STARLINK-4112,PAYLOAD,2022-08-12 20:00:01,15.57257141,0.0001412,53.2177,126.649,58.4232,131.1722,-0.0156919999999999,-0.01059423,0.0,0 STARLINK-4112,1 52861U 22062AH  22224.83335648 -.01059423  00000-0 -15692-1 0  9996,2 52861  53.2177 126.6490 0001412  58.4232 131.1722 15.57257141  9351,6773.736,92.47,396.5580000000001,394.645,0.0
52861.0,STARLINK-4112,PAYLOAD,2022-08-12 22:00:01,15.57068494,0.0001274,53.2176,126.2476,57.647,239.3597,-0.015832,-0.01061101,0.0,0 STARLINK-4112,1 52861U 22062AH  22224.91668981 -.01061101  00000-0 -15832-1 0  9996,2 52861  53.2176 126.2476 0001274  57.6470 239.3597 15.57068494  1300,6774.283,92.481,397.011,395.285,0.0
52861.0,STARLINK-4112,PAYLOAD,2022-08-13 14:00:01,15.55548659,0.0001174,53.2175,123.034,61.0326,13.1567,-0.016744,-0.01060261,0.0,0 STARLINK-4112,1 52861U 22062AH  22225.58334491 -.01060261  00000-0 -16744-1 0  9995,2 52861  53.2175 123.0340 0001174  61.0326  13.1567 15.55548659  1301,6778.695,92.572,401.356,399.764,0.0
52861.0,STARLINK-4112,PAYLOAD,2022-08-13 22:00:00,15.54788513,0.0001349,53.2176,121.432,61.2913,80.1511,-0.01719,-0.01058483,0.0,0 STARLINK-4112,1 52861U 22062AH  22225.91667824 -.01058483  00000-0 -17190-1 0  9990,2 52861  53.2176 121.4320 0001349  61.2913  80.1511 15.54788513  1307,6780.904,92.617,403.684,401.855,0.0
52861.0,STARLINK-4112,PAYLOAD,2022-08-14 14:00:01,15.53269333,0.000121,53.2173,118.2292,67.2865,205.9268,-0.0181659999999999,-0.01057859,0.0,0 STARLINK-4112,1 52861U 22062AH  22226.58334491 -.01057859  00000-0 -18166-1 0  9995,2 52861  53.2173 118.2292 0001210  67.2865 205.9268 15.53269333  1304,6785.325,92.708,408.011,406.369,0.0
52861.0,STARLINK-4112,PAYLOAD,2022-08-14 22:00:00,15.52511532,0.0001371,53.2174,116.6328,46.58,291.1475,-0.018716,-0.01060039,0.0,0 STARLINK-4112,1 52861U 22062AH  22226.91667824 -.01060039  00000-0 -18716-1 0  9996,2 52861  53.2174 116.6328 0001371  46.5800 291.1475 15.52511532  1301,6787.533,92.753,410.329,408.467,0.0
52861.0,STARLINK-4112,PAYLOAD,2022-08-15 06:00:00,15.51752443,0.0001075,53.2171,115.037,65.8681,335.4623,-0.019235,-0.01059817,0.0,0 STARLINK-4112,1 52861U 22062AH  22227.25001157 -.01059817  00000-0 -19235-1 0  9994,2 52861  53.2171 115.0370 0001075  65.8681 335.4623 15.51752443  9739,6789.746,92.798,412.341,410.881,0.0
52861.0,STARLINK-4112,PAYLOAD,2022-08-15 14:00:01,15.50953329,0.0001042999999999,53.2173,113.4402,62.2546,41.7772,-0.018082,-0.00975665,0.0,0 STARLINK-4112,1 52861U 22062AH  22227.58334491 -.00975665  00000-0 -18082-1 0  9996,2 52861  53.2173 113.4402 0001043  62.2546  41.7772 15.50953329  1307,6792.078,92.846,414.652,413.235,0.0
52861.0,STARLINK-4112,PAYLOAD,2022-08-15 22:00:00,15.50160737,0.0001286,53.2173,111.8482,46.1496,119.6589,-0.006915,-0.00378236,0.0,0 STARLINK-4112,1 52861U 22062AH  22227.91667824 -.00378236  00000-0 -69150-2 0  9996,2 52861  53.2173 111.8482 0001286  46.1496 119.6589 15.50160737  9831,6794.393,92.894,417.132,415.385,0.0
52861.0,STARLINK-4112,PAYLOAD,2022-08-16 06:00:02,15.49887337,0.0001152,53.2172,110.2551,78.5392,148.4087,-7.107e-05,-4.483e-05,0.0,0 STARLINK-4112,1 52861U 22062AH  22228.25002315 -.00004483  00000-0 -71070-4 0  9998,2 52861  53.2172 110.2551 0001152  78.5392 148.4087 15.49887337  9895,6795.191999999999,92.91,417.84,416.275,0.0
52861.0,STARLINK-4112,PAYLOAD,2022-08-16 14:00:01,15.49891807,0.000121,53.2147,108.6514,69.2152,218.6129,0.0010018,0.00056834,0.0,0 STARLINK-4112,1 52861U 22062AH  22228.58334491  .00056834  00000-0  10018-2 0  9995,2 52861  53.2147 108.6514 0001210  69.2152 218.6129 15.49891807  1305,6795.179,92.91,417.867,416.222,0.0
52861.0,STARLINK-4112,PAYLOAD,2022-08-16 22:00:00,15.49935032,0.0001279,53.2148,107.0598,59.6196,289.1398,-0.00078896,-0.00045051,0.0,0 STARLINK-4112,1 52861U 22062AH  22228.91667824 -.00045051  00000-0 -78896-3 0  9991,2 52861  53.2148 107.0598 0001279  59.6196 289.1398 15.49935032  1307,6795.053000000001,92.907,417.787,416.049,0.0
52861.0,STARLINK-4112,PAYLOAD,2022-08-17 14:00:01,15.49851423,9.92e-05,53.2162,103.8718,64.8142,45.8103,0.00078436,0.00044264,0.0,0 STARLINK-4112,1 52861U 22062AH  22229.58334491  .00044264  00000-0  78436-3 0  9999,2 52861  53.2162 103.8718 0000992  64.8142  45.8103 15.49851423  1303,6795.297,92.912,417.836,416.48800000000006,0.0
52861.0,STARLINK-4112,PAYLOAD,2022-08-17 16:00:00,15.49871308,0.0001004999999999,53.2162,103.4748,67.9389,147.9,0.00033669,0.00018694,0.0,0 STARLINK-4112,1 52861U 22062AH  22229.66667824  .00018694  00000-0  33669-3 0  9994,2 52861  53.2162 103.4748 0001005  67.9389 147.9000 15.49871308 10118,6795.239000000001,92.911,417.787,416.421,0.0
52861.0,STARLINK-4112,PAYLOAD,2022-08-18 14:00:01,15.49879091,9.31e-05,53.2162,99.0926,66.4135,226.9327,0.00090796,0.00051408,0.0,0 STARLINK-4112,1 52861U 22062AH  22230.58334491  .00051408  00000-0  90796-3 0  9992,2 52861  53.2162  99.0926 0000931  66.4135 226.9327 15.49879091  1304,6795.215999999999,92.91,417.714,416.449,0.0
52861.0,STARLINK-4112,PAYLOAD,2022-08-18 22:00:00,15.49914843,0.0001071,53.2171,97.5049,55.6007,298.6713,-0.00016451,-9.786e-05,0.0,0 STARLINK-4112,1 52861U 22062AH  22230.91667824 -.00009786  00000-0 -16451-3 0  9998,2 52861  53.2171  97.5049 0001071  55.6007 298.6713 15.49914843  1307,6795.111999999999,92.908,417.705,416.249,0.0
52861.0,STARLINK-4112,PAYLOAD,2022-08-19 06:00:00,15.49801309,9.52e-05,53.217,95.9139,62.1628,353.0834,-0.00012478,-7.505e-05,0.0,0 STARLINK-4112,1 52861U 22062AH  22231.25001157 -.00007505  00000-0 -12478-3 0  9999,2 52861  53.2170  95.9139 0000952  62.1628 353.0834 15.49801309 10354,6795.444,92.915,417.956,416.662,0.0
52861.0,STARLINK-4112,PAYLOAD,2022-08-19 14:00:01,15.49862853,0.0001220999999999,53.217,94.3133,69.6479,46.5175,0.00077352,0.00043661,0.0,0 STARLINK-4112,1 52861U 22062AH  22231.58334491  .00043661  00000-0  77352-3 0  9998,2 52861  53.2170  94.3133 0001221  69.6479  46.5175 15.49862853  1305,6795.264,92.911,417.959,416.299,0.0
